*******************************************************************************
Ephemeris / WWW_USER Mon Mar 24 10:54:42 2025 Pasadena, USA      / Horizons    
*******************************************************************************
Target body name: (2018 RG5)                      {source: JPL#6}
Center body name: Earth (399)                     {source: DE441}
Center-site name: Mauna Kea
*******************************************************************************
Start time      : A.D. 2018-Aug-09 05:04:00.0000 UT      
Stop  time      : A.D. 2018-Aug-09 15:50:00.0000 UT      
Step-size       : 1 minutes
*******************************************************************************
Target pole/equ : undefined
Target radii    : undefined                                                    
Center geodetic : 204.5278, 19.8260847, 4.21024   {E-lon(deg),Lat(deg),Alt(km)}
Center cylindric: 204.5278, 6006.35451, 2151.0229 {E-lon(deg),Dxy(km),Dz(km)}
Center pole/equ : ITRF93                          {East-longitude positive}
Center radii    : 6378.137, 6378.137, 6356.752 km {Equator_a, b, pole_c}       
Target primary  : Sun
Vis. interferer : MOON (R_eq= 1737.400) km        {source: DE441}
Rel. light bend : Sun                             {source: DE441}
Rel. lght bnd GM: 1.3271E+11 km^3/s^2                                          
Small-body perts: Yes                             {source: SB441-N16}
Atmos refraction: NO (AIRLESS)
RA format       : HMS
Time format     : CAL 
Calendar mode   : Mixed Julian/Gregorian
RTS-only print  : NO       
EOP file        : eop.250321.p250617                                           
EOP coverage    : DATA-BASED 1962-JAN-20 TO 2025-MAR-21. PREDICTS-> 2025-JUN-16
Units conversion: 1 au= 149597870.700 km, c= 299792.458 km/s, 1 day= 86400.0 s 
Table cut-offs 1: Elevation (-90.0deg=NO ),Airmass (>38.000=NO), Daylight (YES)
Table cut-offs 2: Solar elongation (  0.0,180.0=NO ),Local Hour Angle( 0.0=NO )
Table cut-offs 3: RA/DEC angular rate (     0.0=NO )                           
*******************************************************************************
Initial IAU76/J2000 heliocentric ecliptic osculating elements (au, days, deg.):
  EPOCH=  2458374.5 ! 2018-Sep-13.00 (TDB)         Residual RMS= .44286        
   EC= .3970272763955992   QR= .9476094655819058   TP= 2458410.7007282218      
   OM= 172.9777515025259   W=  220.286388004559    IN= 6.065188755768435       
  Equivalent ICRF heliocentric cartesian coordinates (au, au/d):
   X= 1.011373795361920E+00  Y=-1.657289676662098E-01  Z=-6.569093016663846E-02
  VX=-6.707749535245534E-04 VY= 1.878070382659777E-02 VZ= 5.901532854039199E-03
Asteroid physical parameters (km, seconds, rotational period in hours):        
   GM= n.a.                RAD= n.a.               ROTPER= n.a.                
   H= 26.76                G= .150                 B-V= n.a.                   
                           ALBEDO= n.a.            STYP= n.a.                  
*******************************************************************************
 Date__(UT)__HR:MN     R.A._________(ICRF)_________DEC
******************************************************
$$SOE
 2018-Aug-09 09:10     21 27 03.901427 +07 13 21.84445
 2018-Aug-09 09:11     21 27 03.896556 +07 13 22.25989
 2018-Aug-09 09:12     21 27 03.891665 +07 13 22.67523
 2018-Aug-09 09:13     21 27 03.886755 +07 13 23.09047
 2018-Aug-09 09:14     21 27 03.881825 +07 13 23.50561
 2018-Aug-09 09:15     21 27 03.876875 +07 13 23.92066
 2018-Aug-09 09:16     21 27 03.871907 +07 13 24.33561
 2018-Aug-09 09:17     21 27 03.866919 +07 13 24.75046
 2018-Aug-09 09:18     21 27 03.861912 +07 13 25.16522
 2018-Aug-09 09:19     21 27 03.856887 +07 13 25.57988
 2018-Aug-09 09:20     21 27 03.851844 +07 13 25.99444
 2018-Aug-09 09:21     21 27 03.846783 +07 13 26.40890
 2018-Aug-09 09:22     21 27 03.841703 +07 13 26.82326
 2018-Aug-09 09:23     21 27 03.836606 +07 13 27.23752
 2018-Aug-09 09:24     21 27 03.831492 +07 13 27.65169
 2018-Aug-09 09:25     21 27 03.826360 +07 13 28.06576
 2018-Aug-09 09:26     21 27 03.821211 +07 13 28.47972
 2018-Aug-09 09:27     21 27 03.816045 +07 13 28.89359
 2018-Aug-09 09:28     21 27 03.810863 +07 13 29.30736
 2018-Aug-09 09:29     21 27 03.805664 +07 13 29.72103
 2018-Aug-09 09:30     21 27 03.800449 +07 13 30.13460
 2018-Aug-09 09:31     21 27 03.795219 +07 13 30.54807
 2018-Aug-09 09:32     21 27 03.789972 +07 13 30.96144
 2018-Aug-09 09:33     21 27 03.784710 +07 13 31.37471
 2018-Aug-09 09:34     21 27 03.779433 +07 13 31.78788
 2018-Aug-09 09:35     21 27 03.774140 +07 13 32.20095
 2018-Aug-09 09:36     21 27 03.768833 +07 13 32.61392
 2018-Aug-09 09:37     21 27 03.763511 +07 13 33.02679
 2018-Aug-09 09:38     21 27 03.758175 +07 13 33.43956
 2018-Aug-09 09:39     21 27 03.752824 +07 13 33.85222
 2018-Aug-09 09:40     21 27 03.747460 +07 13 34.26479
 2018-Aug-09 09:41     21 27 03.742082 +07 13 34.67725
 2018-Aug-09 09:42     21 27 03.736690 +07 13 35.08962
 2018-Aug-09 09:43     21 27 03.731285 +07 13 35.50188
 2018-Aug-09 09:44     21 27 03.725867 +07 13 35.91404
 2018-Aug-09 09:45     21 27 03.720436 +07 13 36.32610
 2018-Aug-09 09:46     21 27 03.714992 +07 13 36.73806
 2018-Aug-09 09:47     21 27 03.709536 +07 13 37.14992
 2018-Aug-09 09:48     21 27 03.704068 +07 13 37.56167
 2018-Aug-09 09:49     21 27 03.698588 +07 13 37.97332
 2018-Aug-09 09:50     21 27 03.693096 +07 13 38.38487
 2018-Aug-09 09:51     21 27 03.687593 +07 13 38.79632
 2018-Aug-09 09:52     21 27 03.682078 +07 13 39.20766
 2018-Aug-09 09:53     21 27 03.676552 +07 13 39.61891
 2018-Aug-09 09:54     21 27 03.671016 +07 13 40.03005
 2018-Aug-09 09:55     21 27 03.665468 +07 13 40.44109
 2018-Aug-09 09:56     21 27 03.659911 +07 13 40.85202
 2018-Aug-09 09:57     21 27 03.654343 +07 13 41.26285
 2018-Aug-09 09:58     21 27 03.648765 +07 13 41.67358
 2018-Aug-09 09:59     21 27 03.643178 +07 13 42.08421
 2018-Aug-09 10:00     21 27 03.637581 +07 13 42.49473
 2018-Aug-09 10:01     21 27 03.631975 +07 13 42.90515
 2018-Aug-09 10:02     21 27 03.626360 +07 13 43.31547
 2018-Aug-09 10:03     21 27 03.620736 +07 13 43.72568
 2018-Aug-09 10:04     21 27 03.615103 +07 13 44.13579
 2018-Aug-09 10:05     21 27 03.609462 +07 13 44.54580
 2018-Aug-09 10:06     21 27 03.603813 +07 13 44.95570
 2018-Aug-09 10:07     21 27 03.598157 +07 13 45.36550
 2018-Aug-09 10:08     21 27 03.592492 +07 13 45.77519
 2018-Aug-09 10:09     21 27 03.586820 +07 13 46.18479
 2018-Aug-09 10:10     21 27 03.581141 +07 13 46.59427
 2018-Aug-09 10:11     21 27 03.575455 +07 13 47.00366
 2018-Aug-09 10:12     21 27 03.569762 +07 13 47.41294
 2018-Aug-09 10:13     21 27 03.564062 +07 13 47.82211
 2018-Aug-09 10:14     21 27 03.558356 +07 13 48.23118
 2018-Aug-09 10:15     21 27 03.552644 +07 13 48.64015
 2018-Aug-09 10:16     21 27 03.546927 +07 13 49.04901
 2018-Aug-09 10:17     21 27 03.541203 +07 13 49.45777
 2018-Aug-09 10:18     21 27 03.535475 +07 13 49.86642
 2018-Aug-09 10:19     21 27 03.529741 +07 13 50.27497
 2018-Aug-09 10:20     21 27 03.524002 +07 13 50.68342
 2018-Aug-09 10:21     21 27 03.518259 +07 13 51.09176
 2018-Aug-09 10:22     21 27 03.512511 +07 13 51.49999
 2018-Aug-09 10:23     21 27 03.506759 +07 13 51.90812
 2018-Aug-09 10:24     21 27 03.501002 +07 13 52.31615
 2018-Aug-09 10:25     21 27 03.495243 +07 13 52.72407
 2018-Aug-09 10:26     21 27 03.489479 +07 13 53.13189
 2018-Aug-09 10:27     21 27 03.483712 +07 13 53.53960
 2018-Aug-09 10:28     21 27 03.477942 +07 13 53.94721
 2018-Aug-09 10:29     21 27 03.472170 +07 13 54.35471
 2018-Aug-09 10:30     21 27 03.466394 +07 13 54.76210
 2018-Aug-09 10:31     21 27 03.460617 +07 13 55.16940
 2018-Aug-09 10:32     21 27 03.454837 +07 13 55.57658
 2018-Aug-09 10:33     21 27 03.449055 +07 13 55.98366
 2018-Aug-09 10:34     21 27 03.443271 +07 13 56.39064
 2018-Aug-09 10:35     21 27 03.437486 +07 13 56.79751
 2018-Aug-09 10:36     21 27 03.431700 +07 13 57.20428
 2018-Aug-09 10:37     21 27 03.425913 +07 13 57.61094
 2018-Aug-09 10:38     21 27 03.420125 +07 13 58.01750
 2018-Aug-09 10:39  t  21 27 03.414336 +07 13 58.42395
 2018-Aug-09 10:40     21 27 03.408547 +07 13 58.83029
 2018-Aug-09 10:41     21 27 03.402758 +07 13 59.23653
 2018-Aug-09 10:42     21 27 03.396969 +07 13 59.64267
 2018-Aug-09 10:43     21 27 03.391181 +07 14 00.04870
 2018-Aug-09 10:44     21 27 03.385393 +07 14 00.45463
 2018-Aug-09 10:45     21 27 03.379606 +07 14 00.86045
 2018-Aug-09 10:46     21 27 03.373820 +07 14 01.26616
 2018-Aug-09 10:47     21 27 03.368035 +07 14 01.67177
 2018-Aug-09 10:48     21 27 03.362252 +07 14 02.07727
 2018-Aug-09 10:49     21 27 03.356471 +07 14 02.48267
 2018-Aug-09 10:50     21 27 03.350691 +07 14 02.88797
 2018-Aug-09 10:51     21 27 03.344914 +07 14 03.29315
 2018-Aug-09 10:52     21 27 03.339139 +07 14 03.69824
 2018-Aug-09 10:53     21 27 03.333367 +07 14 04.10322
 2018-Aug-09 10:54     21 27 03.327598 +07 14 04.50809
 2018-Aug-09 10:55     21 27 03.321832 +07 14 04.91286
 2018-Aug-09 10:56     21 27 03.316069 +07 14 05.31752
 2018-Aug-09 10:57     21 27 03.310310 +07 14 05.72208
 2018-Aug-09 10:58     21 27 03.304555 +07 14 06.12653
 2018-Aug-09 10:59     21 27 03.298804 +07 14 06.53088
 2018-Aug-09 11:00     21 27 03.293057 +07 14 06.93512
 2018-Aug-09 11:01     21 27 03.287314 +07 14 07.33925
 2018-Aug-09 11:02     21 27 03.281577 +07 14 07.74329
 2018-Aug-09 11:03     21 27 03.275844 +07 14 08.14721
 2018-Aug-09 11:04     21 27 03.270117 +07 14 08.55104
 2018-Aug-09 11:05     21 27 03.264395 +07 14 08.95475
 2018-Aug-09 11:06     21 27 03.258678 +07 14 09.35837
 2018-Aug-09 11:07     21 27 03.252968 +07 14 09.76187
 2018-Aug-09 11:08     21 27 03.247264 +07 14 10.16528
 2018-Aug-09 11:09     21 27 03.241566 +07 14 10.56857
 2018-Aug-09 11:10     21 27 03.235874 +07 14 10.97177
 2018-Aug-09 11:11     21 27 03.230190 +07 14 11.37485
 2018-Aug-09 11:12     21 27 03.224512 +07 14 11.77784
